{
"type": "FeatureCollection",
"name": "frituren",
"crs": { "type": "name", "properties": { "name": "urn:ogc:def:crs:OGC:1.3:CRS84" } },
"features": [
{ "type": "Feature", "properties": { "id": "1", "name": "Altena", "amenity": "fast_food", "building": "yes", "cuisine": "friture", "addr:street": "De Villermontstraat", "addr:housenumber": null }, "geometry": { "type": "Polygon", "coordinates": [ [ [ 4.4450799, 51.1400407 ], [ 4.4450784, 51.1400156 ], [ 4.4451079, 51.1400149 ], [ 4.4451066, 51.1399921 ], [ 4.4451855, 51.1399903 ], [ 4.4451882, 51.1400383 ], [ 4.4450799, 51.1400407 ] ] ] } },
{ "type": "Feature", "properties": { "id": "2", "name": "Njamnjam", "amenity": "fast_food", "building": "yes", "cuisine": "friture", "addr:street": "Oude Baan", "addr:housenumber": "29" }, "geometry": { "type": "Polygon", "coordinates": [ [ [ 4.45222459340545, 51.110283979046436 ], [ 4.452249307502924, 51.110276854391628 ], [ 4.452485911020645, 51.11020864913062 ], [ 4.452448216867835, 51.110157904084389 ], [ 4.452210242962139, 51.110226238536264 ], [ 4.452215953006542, 51.110234424165768 ], [ 4.45217659973223, 51.110245768583233 ], [ 4.452207399395953, 51.110288935276103 ], [ 4.45222459340545, 51.110283979046436 ] ] ] } },
{ "type": "Feature", "properties": { "id": "3", "name": "De Smulwagon", "amenity": "fast_food", "building": "yes", "cuisine": "friture", "addr:street": "Ooststatiestraat", "addr:housenumber": "314" }, "geometry": { "type": "Polygon", "coordinates": [ [ [ 4.474678676718716, 51.133899509719186 ], [ 4.474653941922179, 51.133857854431135 ], [ 4.47468549913399, 51.133850437079559 ], [ 4.474691080953997, 51.133849125009348 ], [ 4.47463657968304, 51.133757340549934 ], [ 4.474543395173687, 51.133779710856942 ], [ 4.474501793485515, 51.133710267638321 ], [ 4.47446665865115, 51.13371814378521 ], [ 4.474491457503651, 51.133763139111721 ], [ 4.474487564201516, 51.133764329417389 ], [ 4.474514896331424, 51.133811551650403 ], [ 4.474582786740845, 51.133928849096925 ], [ 4.47468317471014, 51.13390646535052 ], [ 4.474678676718716, 51.133899509719186 ] ] ] } },
{ "type": "Feature", "properties": { "id": "4", "name": "De Friethoeve", "amenity": "fast_food", "building": "yes", "cuisine": "friture", "addr:street": "Mechelsesteenweg", "addr:housenumber": "181" }, "geometry": { "type": "Polygon", "coordinates": [ [ [ 4.447926493033499, 51.128215311832818 ], [ 4.447941868392004, 51.128190578308605 ], [ 4.447975906752675, 51.128135831432942 ], [ 4.447978176942886, 51.128132178035095 ], [ 4.447878573046867, 51.128107456729566 ], [ 4.447851101528683, 51.128152031686504 ], [ 4.447814078900026, 51.128212105309444 ], [ 4.447914720803031, 51.128234246422657 ], [ 4.447926493033499, 51.128215311832818 ] ] ] } },
{ "type": "Feature", "properties": { "id": "5", "name": "Pannick", "amenity": "fast_food", "building": "yes", "cuisine": "friture", "addr:street": "Grote Steenweg", "addr:housenumber": "105" }, "geometry": { "type": "Polygon", "coordinates": [ [ [ 4.451598351768444, 51.104938669328618 ], [ 4.451608400046954, 51.104909215817713 ], [ 4.451632802607028, 51.104912865382396 ], [ 4.45164214559987, 51.104881977614049 ], [ 4.451643825247309, 51.104876424375348 ], [ 4.451570013876883, 51.104863057613713 ], [ 4.451498026122931, 51.104850021453942 ], [ 4.451441261355651, 51.104839742174768 ], [ 4.451350423326506, 51.104836932231592 ], [ 4.451351666604134, 51.104826976670161 ], [ 4.451222114616497, 51.104823630753067 ], [ 4.4512193081058, 51.104871243663524 ], [ 4.451328887007476, 51.104874657184041 ], [ 4.451327289821735, 51.104881895361679 ], [ 4.451318277589265, 51.104906213148631 ], [ 4.451582916001613, 51.104944682752276 ], [ 4.451598351768444, 51.104938669328618 ] ] ] } }
]
}
